QIANFAN-60              
1 62790U 25016F   25345.29874773  .00000084  00000+0  11216-3 0  9999
2 62790  88.9758 103.2248 0015012 353.3777   6.7173 13.50982818 47038
QIANFAN-61              
1 62791U 25016G   25345.25746597  .00000199  00000+0  28973-3 0  9993
2 62791  88.9825 103.3909 0013992 353.2429   6.8531 13.50979871 47042
QIANFAN-62              
1 62792U 25016H   25345.26157624  .00000216  00000+0  31520-3 0  9994
2 62792  88.9771 103.2597 0015375 353.0365   7.0570 13.50976402 47031
QIANFAN-63              
1 62793U 25016J   25345.28629793  .00000213  00000+0  31070-3 0  9995
2 62793  88.9778 103.2086 0015568 358.4916   1.6186 13.50983062 47074
QIANFAN-64              
1 62794U 25016K   25345.25333253  .00000202  00000+0  29357-3 0  9999
2 62794  88.9765 103.1863 0013325 352.1132   7.9808 13.50978121 47062
QIANFAN-65              
1 62795U 25016L   25345.32330957  .00000201  00000+0  29282-3 0  9992
2 62795  88.9761 103.2051 0013201 353.8427   6.2559 13.50983829 47052
QIANFAN-66              
1 62796U 25016M   25345.27801869  .00000197  00000+0  28586-3 0  9992
2 62796  88.9780 103.1797 0014195 348.7798  11.3035 13.50976559 47099
QIANFAN-67              
1 62797U 25016N   25345.28227652  .00000209  00000+0  30432-3 0  9993
2 62797  88.9771 103.2050 0014353 356.0284   4.0751 13.50980770 47062
QIANFAN-68              
1 62798U 25016P   25345.27397378  .00000197  00000+0  28702-3 0  9999
2 62798  88.9774 103.2510 0014358 354.1848   5.9134 13.50983139 47042
QIANFAN-69              
1 62799U 25016Q   25345.29047067  .00000203  00000+0  29568-3 0  9998
2 62799  88.9753 103.1189 0015136 354.9903   5.1095 13.50985980 47084
QIANFAN-70              
1 62800U 25016R   25345.30688446  .00000195  00000+0  28316-3 0  9995
2 62800  88.9774 103.2554 0014486 344.9696  15.1023 13.50976854 47040
QIANFAN-71              
1 62801U 25016S   25345.30273166  .00000201  00000+0  29327-3 0  9996
2 62801  88.9768 103.2355 0015157 358.6599   1.4509 13.50983993 47042
QIANFAN-72              
1 62802U 25016T   25345.31920461  .00000196  00000+0  28488-3 0  9995
2 62802  88.9758 103.2473 0018606   4.9494 355.1837 13.50983927 47039
QIANFAN-73              
1 63159U 25046A   25345.19814531  .00000158  00000+0  22579-3 0  9993
2 63159  88.9760 320.1821 0016397 123.6566 236.6152 13.50976752 47209
QIANFAN-74              
1 63160U 25046B   25345.25560145  .00000162  00000+0  23268-3 0  9992
2 63160  88.9761 320.0648 0001989  79.0047 281.1328 13.50979146 47274
QIANFAN-75              
1 63161U 25046C   25345.24289124  .00000181  00000+0  26149-3 0  9999
2 63161  88.9762 320.2997 0017447 126.6151 233.6608 13.50978039 47145
QIANFAN-76              
1 63162U 25046D   25345.23950720  .00000192  00000+0  27841-3 0  9998
2 63162  88.9760 320.2809 0014989 126.3684 233.8853 13.50970307 47157
QIANFAN-77              
1 63163U 25046E   25345.25226580  .00000457  00000+0  32332-3 0  9996
2 63163  88.9763 318.2985 0017006  85.2636 275.0483 13.96087167 48247
QIANFAN-78              
1 63164U 25046F   25345.20634762  .00000169  00000+0  24334-3 0  9990
2 63164  88.9760 320.1482 0016298 129.0327 231.2278 13.50976990 47229
QIANFAN-79              
1 63165U 25046G   25345.23501174  .00000172  00000+0  24819-3 0  9996
2 63165  88.9764 320.2527 0016037 127.2568 233.0048 13.50978563 47170
QIANFAN-80              
1 63166U 25046H   25345.25152649  .00000191  00000+0  27692-3 0  9991
2 63166  88.9762 319.9578 0014910 130.7209 229.5240 13.50976191 47336
QIANFAN-81              
1 63167U 25046J   25345.22995277  .00000206  00000+0  29947-3 0  9993
2 63167  88.9762 320.0281 0016189 120.5969 239.6781 13.51001932 47280
QIANFAN-82              
1 63168U 25046K   25345.26397323  .00000183  00000+0  26447-3 0  9992
2 63168  88.9762 320.0684 0014161 126.9632 233.2818 13.50975328 47271
QIANFAN-83              
1 63169U 25046L   25345.30302147  .00000214  00000+0  26218-3 0  9999
2 63169  88.9762 319.8436 0015794 114.0942 246.1869 13.61973889 47404
QIANFAN-84              
1 63170U 25046M   25345.21772478  .00000155  00000+0  22069-3 0  9993
2 63170  88.9761 320.2059 0017192 124.9018 235.3752 13.50986441 47193
QIANFAN-85              
1 63171U 25046N   25345.21447231  .00000215  00000+0  31349-3 0  9998
2 63171  88.9761 320.0780 0014537 126.1701 234.0797 13.50975940 47261
QIANFAN-86              
1 63172U 25046P   25345.22279990  .00000202  00000+0  29465-3 0  9997
2 63172  88.9763 319.9392 0012332 128.9960 231.2291 13.50975730 47342
QIANFAN-87              
1 63173U 25046Q   25345.26819182  .00000187  00000+0  27070-3 0  9997
2 63173  88.9759 320.0463 0013090 124.9971 235.2411 13.50973824 47283
QIANFAN-88              
1 63174U 25046R   25345.21046317  .00000194  00000+0  28188-3 0  9994
2 63174  88.9762 320.0067 0013291 132.5845 227.6430 13.50980228 47301
QIANFAN-89              
1 63175U 25046S   25345.24733116  .00000172  00000+0  24681-3 0  9998
2 63175  88.9762 320.1920 0017867 125.3439 234.9385 13.50975815 47208
QIANFAN-90              
1 63176U 25046T   25345.20200790  .00000157  00000+0  22348-3 0  9993
2 63176  88.9762 320.1691 0014839 122.9660 237.2920 13.50976652 47211
QIANFAN-91              
1 66033U 25233A   25345.21838581  .00000404  00000+0  35216-3 0  9995
2 66033  88.9956  62.3225 0018278  48.2013 312.0715 13.83814017  7764
QIANFAN-92              
1 66034U 25233B   25345.28246238  .00000456  00000+0  38531-3 0  9995
2 66034  88.9955  62.3128 0017743  49.3684 310.9027 13.85849418  7777
QIANFAN-93              
1 66035U 25233C   25345.22306625  .00000094  00000+0  74779-4 0  9990
2 66035  88.9959  62.3234 0016442  49.9097 310.3510 13.82130834  7761
QIANFAN-94              
1 66036U 25233D   25344.90690933  .00000321  00000+0  26238-3 0  9992
2 66036  88.9958  62.3510 0017071  49.8257 310.4406 13.87058034  7721
QIANFAN-95              
1 66037U 25233E   25345.13197436  .00000721  00000+0  35084-3 0  9992
2 66037  88.9961  62.2363 0015164  49.3042 310.9461 14.17146736  7805
QIANFAN-96              
1 66038U 25233F   25344.96035489  .00000293  00000+0  25874-3 0  9992
2 66038  88.9960  62.3585 0017566  51.7431 308.5316 13.82403816  7728
QIANFAN-97              
1 66039U 25233G   25345.00100580  .00000327  00000+0  27197-3 0  9992
2 66039  88.9961  62.3461 0017638  53.2952 306.9837 13.86104018  7735
QIANFAN-98              
1 66040U 25233H   25344.56598961  .00000131  00000+0  80750-4 0  9996
2 66040  88.9961  62.3370 0016518  51.4807 308.7850 13.99174995  7708
QIANFAN-99              
1 66041U 25233J   25345.21743814  .00000417  00000+0  36142-3 0  9991
2 66041  88.9960  62.3228 0017181  48.3777 311.8861 13.84332924  7763
QIANFAN-100             
1 66042U 25233K   25344.65754805  .00000522  00000+0  37575-3 0  9999
2 66042  88.9967  62.3183 0016340  51.9794 308.2854 13.95342302  7716
QIANFAN-101             
1 66043U 25233L   25345.26349230  .00000463  00000+0  18543-3 0  9998
2 66043  88.9962  62.2003 0016186  46.8467 313.4076 14.26675090  7835
QIANFAN-102             
1 66044U 25233M   25344.88039262  .00000269  00000+0  21757-3 0  9992
2 66044  88.9997  62.3571 0016988  50.9133 309.3547 13.87138439  7723
QIANFAN-103             
1 66045U 25233N   25344.87098579  .00000309  00000+0  26553-3 0  9992
2 66045  88.9962  62.3637 0017022  50.7556 309.5122 13.84097266  7715
QIANFAN-104             
1 66046U 25233P   25344.81394928  .00000320  00000+0  26400-3 0  9998
2 66046  88.9925  62.3722 0018786  50.7401 309.5434 13.86551077  7710
QIANFAN-105             
1 66047U 25233Q   25345.13195585  .00000455  00000+0  30394-3 0  9999
2 66047  88.9960  62.3107 0016770  48.4633 311.7980 13.99266092  7769
QIANFAN-106             
1 66048U 25233R   25344.98361748  .00000083  00000+0  60551-4 0  9994
2 66048  88.9970  62.3409 0016526  51.4620 308.8029 13.86303017  7738
QIANFAN-107             
1 66049U 25233S   25344.67975789  .00000192  00000+0  15666-3 0  9994
2 66049  88.9964  62.3726 0016713  51.6087 308.6582 13.85505989  7699
QIANFAN-108             
1 66050U 25233T   25344.90317233  .00000208  00000+0  17094-3 0  9991
2 66050  88.9951  62.3516 0016387  53.7248 306.5433 13.85343352  7723
